[Satellite]
VERSION=1.1
NAME=SL-16 R/B
NICKNAME=SL-16 R/B
TLE1=1 25400U 98043G   20158.06200237 -.00000025  00000-0  75767-5 0  9996
TLE2=2 25400  98.6071  94.2001 0010227  14.9039 345.2441 14.25454316139627
STATUS=0
